{
  "norad_id": 44307,
  "name": "YAMAL 601",
  "history": [
    {
      "epoch": "2026-03-28T11:35:46.682016",
      "apogee_km": 35797.49213139475,
      "perigee_km": 35775.37428444648,
      "latitude_deg": -0.015314454348684139,
      "longitude_deg": 97.08520223991945,
      "semi_major_axis_km": 42164.57020792062,
      "eccentricity": 0.00026228,
      "inclination_deg": 0.0241,
      "raan_deg": 176.7627,
      "arg_perigee_deg": 191.7348,
      "mean_anomaly_deg": 40.3576,
      "mean_motion_rev_day": 1.00272362
    }
  ]
}